[{"OBJECT_NAME":"COSMOS 2571","OBJECT_ID":"2023-165C","EPOCH":"2026-03-09T19:25:49.566144","MEAN_MOTION":13.97323702,"ECCENTRICITY":0.0010141,"INCLINATION":67.1509,"RA_OF_ASC_NODE":169.1542,"ARG_OF_PERICENTER":25.0362,"MEAN_ANOMALY":335.1212,"EPHEMERIS_TYPE":0,"CLASSIFICATION_TYPE":"U","NORAD_CAT_ID":58172,"ELEMENT_SET_NO":999,"REV_AT_EPOCH":12047,"BSTAR":5.9518e-5,"MEAN_MOTION_DOT":8.0e-8,"MEAN_MOTION_DDOT":0},{"OBJECT_NAME":"DELTA 1 DEB","OBJECT_ID":"1978-026HH","EPOCH":"2026-03-03T05:04:07.244544","MEAN_MOTION":13.99444971,"ECCENTRICITY":0.00622951,"INCLINATION":99.1464,"RA_OF_ASC_NODE":326.8126,"ARG_OF_PERICENTER":283.1078,"MEAN_ANOMALY":76.3138,"EPHEMERIS_TYPE":0,"CLASSIFICATION_TYPE":"U","NORAD_CAT_ID":18775,"ELEMENT_SET_NO":999,"REV_AT_EPOCH":90164,"BSTAR":0.0003048188,"MEAN_MOTION_DOT":4.06e-6,"MEAN_MOTION_DDOT":0}]
